[
    {
        "Altitude(m)": 565869.3480298136,
        "Argument of Periapsis(deg)": 0.0,
        "Eccentricity": 0.0,
        "Inclination(deg)": 97.0,
        "Latitude(deg)": 6.077828713932606,
        "Longitude(deg)": -159.22426295550065,
        "Mean Anomaly(deg)": 173.79310000000004,
        "RAAN(deg)": 120.0,
        "Satellite Name": "Starlink Shell 3 1844",
        "Satellite Number": 1844,
        "Semi-Major Axis(m)": 6938478.169268562,
        "Time(s)": 0
    },
    {
        "Altitude(m)": 565910.5778621681,
        "Argument of Periapsis(deg)": -0.0003965466804030246,
        "Eccentricity": 0.0,
        "Inclination(deg)": 97.0,
        "Latitude(deg)": 5.453429073820049,
        "Longitude(deg)": -159.34297190444155,
        "Mean Anomaly(deg)": 174.41857619770505,
        "RAAN(deg)": 120.000104334274,
        "Satellite Name": "Starlink Shell 3 1844",
        "Satellite Number": 1844,
        "Semi-Major Axis(m)": 6938478.169268562,
        "Time(s)": 10
    },
    {
        "Altitude(m)": 565956.1096181388,
        "Argument of Periapsis(deg)": -0.0007930933608060492,
        "Eccentricity": 0.0,
        "Inclination(deg)": 97.0,
        "Latitude(deg)": 4.829017833178652,
        "Longitude(deg)": -159.4615209512491,
        "Mean Anomaly(deg)": 175.0440523954101,
        "RAAN(deg)": 120.00020866854801,
        "Satellite Name": "Starlink Shell 3 1844",
        "Satellite Number": 1844,
        "Semi-Major Axis(m)": 6938478.169268562,
        "Time(s)": 20
    },
    {
        "Altitude(m)": 566005.9504303826,
        "Argument of Periapsis(deg)": -0.001189640041209074,
        "Eccentricity": 0.0,
        "Inclination(deg)": 97.0,
        "Latitude(deg)": 4.204598009968225,
        "Longitude(deg)": -159.5799287363853,
        "Mean Anomaly(deg)": 175.6695285931152,
        "RAAN(deg)": 120.00031300282204,
        "Satellite Name": "Starlink Shell 3 1844",
        "Satellite Number": 1844,
        "Semi-Major Axis(m)": 6938478.169268562,
        "Time(s)": 30
    },
    {
        "Altitude(m)": 566060.105370808,
        "Argument of Periapsis(deg)": -0.0015861867216120985,
        "Eccentricity": 0.0,
        "Inclination(deg)": 97.0,
        "Latitude(deg)": 3.5801726191635015,
        "Longitude(deg)": -159.69821326225744,
        "Mean Anomaly(deg)": 176.2950047908202,
        "RAAN(deg)": 120.00041733709604,
        "Satellite Name": "Starlink Shell 3 1844",
        "Satellite Number": 1844,
        "Semi-Major Axis(m)": 6938478.169268562,
        "Time(s)": 40
    },
    {
        "Altitude(m)": 566118.5774446315,
        "Argument of Periapsis(deg)": -0.0019827334020151234,
        "Eccentricity": 0.0,
        "Inclination(deg)": 97.0,
        "Latitude(deg)": 2.9557446728893004,
        "Longitude(deg)": -159.81639291935807,
        "Mean Anomaly(deg)": 176.92048098852527,
        "RAAN(deg)": 120.00052167137005,
        "Satellite Name": "Starlink Shell 3 1844",
        "Satellite Number": 1844,
        "Semi-Major Axis(m)": 6938478.169268562,
        "Time(s)": 50
    },
    {
        "Altitude(m)": 566181.367585503,
        "Argument of Periapsis(deg)": -0.002379280082418148,
        "Eccentricity": 0.0,
        "Inclination(deg)": 97.0,
        "Latitude(deg)": 2.3313171805372654,
        "Longitude(deg)": -159.93448599930088,
        "Mean Anomaly(deg)": 177.5459571862303,
        "RAAN(deg)": 120.00062600564404,
        "Satellite Name": "Starlink Shell 3 1844",
        "Satellite Number": 1844,
        "Semi-Major Axis(m)": 6938478.169268562,
        "Time(s)": 60
    },
    {
        "Altitude(m)": 566248.4746516532,
        "Argument of Periapsis(deg)": -0.002775826762821173,
        "Eccentricity": 0.0,
        "Inclination(deg)": 97.0,
        "Latitude(deg)": 1.706893148866831,
        "Longitude(deg)": -160.05251020765948,
        "Mean Anomaly(deg)": 178.1714333839353,
        "RAAN(deg)": 120.00073033991804,
        "Satellite Name": "Starlink Shell 3 1844",
        "Satellite Number": 1844,
        "Semi-Major Axis(m)": 6938478.169268562,
        "Time(s)": 70
    },
    {
        "Altitude(m)": 566319.895423124,
        "Argument of Periapsis(deg)": -0.003172373443224197,
        "Eccentricity": 0.0,
        "Inclination(deg)": 97.0,
        "Latitude(deg)": 1.0824755820976453,
        "Longitude(deg)": -160.17048368951833,
        "Mean Anomaly(deg)": 178.7969095816404,
        "RAAN(deg)": 120.00083467419205,
        "Satellite Name": "Starlink Shell 3 1844",
        "Satellite Number": 1844,
        "Semi-Major Axis(m)": 6938478.169268562,
        "Time(s)": 80
    },
    {
        "Altitude(m)": 566395.6246000254,
        "Argument of Periapsis(deg)": -0.0035689201236272223,
        "Eccentricity": 0.0,
        "Inclination(deg)": 97.0,
        "Latitude(deg)": 0.45806748199003944,
        "Longitude(deg)": -160.28842454202152,
        "Mean Anomaly(deg)": 179.42238577934543,
        "RAAN(deg)": 120.00093900846606,
        "Satellite Name": "Starlink Shell 3 1844",
        "Satellite Number": 1844,
        "Semi-Major Axis(m)": 6938478.169268562,
        "Time(s)": 90
    },
    {
        "Altitude(m)": 566475.6548019006,
        "Argument of Periapsis(deg)": -0.003965466804030247,
        "Eccentricity": 0.0,
        "Inclination(deg)": 97.0,
        "Latitude(deg)": -0.16632815208128177,
        "Longitude(deg)": -160.40635032682695,
        "Mean Anomaly(deg)": 180.04786197705045,
        "RAAN(deg)": 120.00104334274008,
        "Satellite Name": "Starlink Shell 3 1844",
        "Satellite Number": 1844,
        "Semi-Major Axis(m)": 6938478.169268562,
        "Time(s)": 100
    },
    {
        "Altitude(m)": 566559.9765680811,
        "Argument of Periapsis(deg)": -0.004362013484433271,
        "Eccentricity": 0.0,
        "Inclination(deg)": 97.0,
        "Latitude(deg)": -0.7907083230550119,
        "Longitude(deg)": -160.52427909537172,
        "Mean Anomaly(deg)": 180.67333817475554,
        "RAAN(deg)": 120.0011476770141,
        "Satellite Name": "Starlink Shell 3 1844",
        "Satellite Number": 1844,
        "Semi-Major Axis(m)": 6938478.169268562,
        "Time(s)": 110
    },
    {
        "Altitude(m)": 566648.5783591587,
        "Argument of Periapsis(deg)": -0.004758560164836296,
        "Eccentricity": 0.0,
        "Inclination(deg)": 97.0,
        "Latitude(deg)": -1.4150700361143844,
        "Longitude(deg)": -160.64222890123534,
        "Mean Anomaly(deg)": 181.29881437246053,
        "RAAN(deg)": 120.0012520112881,
        "Satellite Name": "Starlink Shell 3 1844",
        "Satellite Number": 1844,
        "Semi-Major Axis(m)": 6938478.169268562,
        "Time(s)": 120
    },
    {
        "Altitude(m)": 566741.4465594856,
        "Argument of Periapsis(deg)": -0.005155106845239321,
        "Eccentricity": 0.0,
        "Inclination(deg)": 97.0,
        "Latitude(deg)": -2.0394102986185483,
        "Longitude(deg)": -160.7602173125063,
        "Mean Anomaly(deg)": 181.9242905701656,
        "RAAN(deg)": 120.00135634556212,
        "Satellite Name": "Starlink Shell 3 1844",
        "Satellite Number": 1844,
        "Semi-Major Axis(m)": 6938478.169268562,
        "Time(s)": 130
    },
    {
        "Altitude(m)": 566838.565480744,
        "Argument of Periapsis(deg)": -0.005551653525642346,
        "Eccentricity": 0.0,
        "Inclination(deg)": 97.0,
        "Latitude(deg)": -2.663726120026351,
        "Longitude(deg)": -160.87826243705857,
        "Mean Anomaly(deg)": 182.54976676787066,
        "RAAN(deg)": 120.00146067983611,
        "Satellite Name": "Starlink Shell 3 1844",
        "Satellite Number": 1844,
        "Semi-Major Axis(m)": 6938478.169268562,
        "Time(s)": 140
    },
    {
        "Altitude(m)": 566939.9173665507,
        "Argument of Periapsis(deg)": -0.005948200206045371,
        "Eccentricity": 0.0,
        "Inclination(deg)": 97.0,
        "Latitude(deg)": -3.288014511816812,
        "Longitude(deg)": -160.9963824350234,
        "Mean Anomaly(deg)": 183.17524296557568,
        "RAAN(deg)": 120.00156501411014,
        "Satellite Name": "Starlink Shell 3 1844",
        "Satellite Number": 1844,
        "Semi-Major Axis(m)": 6938478.169268562,
        "Time(s)": 150
    },
    {
        "Altitude(m)": 567045.4823981397,
        "Argument of Periapsis(deg)": -0.006344746886448394,
        "Eccentricity": 0.0,
        "Inclination(deg)": 97.0,
        "Latitude(deg)": -3.912272487401655,
        "Longitude(deg)": -161.11459503136382,
        "Mean Anomaly(deg)": 183.80071916328077,
        "RAAN(deg)": 120.00166934838414,
        "Satellite Name": "Starlink Shell 3 1844",
        "Satellite Number": 1844,
        "Semi-Major Axis(m)": 6938478.169268562,
        "Time(s)": 160
    },
    {
        "Altitude(m)": 567155.2387010757,
        "Argument of Periapsis(deg)": -0.00674129356685142,
        "Eccentricity": 0.0,
        "Inclination(deg)": 97.0,
        "Latitude(deg)": -4.536497062021886,
        "Longitude(deg)": -161.2329185414578,
        "Mean Anomaly(deg)": 184.42619536098576,
        "RAAN(deg)": 120.00177368265815,
        "Satellite Name": "Starlink Shell 3 1844",
        "Satellite Number": 1844,
        "Semi-Major Axis(m)": 6938478.169268562,
        "Time(s)": 170
    },
    {
        "Altitude(m)": 567269.162353015,
        "Argument of Periapsis(deg)": -0.007137840247254445,
        "Eccentricity": 0.0,
        "Inclination(deg)": 97.0,
        "Latitude(deg)": -5.160685252635166,
        "Longitude(deg)": -161.35137138397783,
        "Mean Anomaly(deg)": 185.05167155869077,
        "RAAN(deg)": 120.00187801693214,
        "Satellite Name": "Starlink Shell 3 1844",
        "Satellite Number": 1844,
        "Semi-Major Axis(m)": 6938478.169268562,
        "Time(s)": 180
    }
]